[{"OBJECT_NAME":"STARLINK-33750","OBJECT_ID":"2025-071W","EPOCH":"2026-03-09T12:52:42.250368","MEAN_MOTION":15.30181383,"ECCENTRICITY":0.00012263,"INCLINATION":53.1584,"RA_OF_ASC_NODE":140.7934,"ARG_OF_PERICENTER":100.9824,"MEAN_ANOMALY":259.1314,"EPHEMERIS_TYPE":0,"CLASSIFICATION_TYPE":"U","NORAD_CAT_ID":63513,"ELEMENT_SET_NO":999,"REV_AT_EPOCH":5272,"BSTAR":0.00099185208,"MEAN_MOTION_DOT":0.00029115,"MEAN_MOTION_DDOT":0},{"OBJECT_NAME":"PUCP-SAT 1","OBJECT_ID":"2013-066AC","EPOCH":"2026-03-09T22:02:13.763904","MEAN_MOTION":15.29426022,"ECCENTRICITY":0.00136836,"INCLINATION":97.5787,"RA_OF_ASC_NODE":61.0032,"ARG_OF_PERICENTER":300.1183,"MEAN_ANOMALY":59.87,"EPHEMERIS_TYPE":0,"CLASSIFICATION_TYPE":"U","NORAD_CAT_ID":39442,"ELEMENT_SET_NO":999,"REV_AT_EPOCH":66907,"BSTAR":0.00088755185,"MEAN_MOTION_DOT":0.00025373,"MEAN_MOTION_DDOT":0}]
